NORAD_CAT_ID,OBJECT_NAME,OBJECT_TYPE,EPOCH,MEAN_MOTION,ECCENTRICITY,INCLINATION,RA_OF_ASC_NODE,ARG_OF_PERICENTER,MEAN_ANOMALY,BSTAR,MEAN_MOTION_DOT,MEAN_MOTION_DDOT,TLE_LINE0,TLE_LINE1,TLE_LINE2,SEMIMAJOR_AXIS,PERIOD,APOGEE,PERIGEE,DECAYED
52646.0,STARLINK-3832,PAYLOAD,2023-04-08 03:03:10,15.08838915,9.86e-05,53.2174,7.1094,99.2876,260.8228,-5.7845e-05,-1.208e-05,0.0,0 STARLINK-3832,1 52646U 22052BA  23098.12720473 -.00001208  00000-0 -57845-4 0  9998,2 52646  53.2174   7.1094 0000986  99.2876 260.8228 15.08838915 50496,6917.884,95.438,540.431,539.067,0.0
52646.0,STARLINK-3832,PAYLOAD,2023-04-08 18:57:02,15.0883178,0.0001078,53.2166,4.1387,105.4228,254.6883,-0.00010105,-1.895e-05,0.0,0 STARLINK-3832,1 52646U 22052BA  23098.78961169 -.00001895  00000-0 -10105-3 0  9998,2 52646  53.2166   4.1387 0001078 105.4228 254.6883 15.08831780 50595,6917.906,95.438,540.516,539.025,0.0
52646.0,STARLINK-3832,PAYLOAD,2023-04-09 02:53:57,15.08838212,0.0001077,53.2163,2.6509,110.6153,249.4955,0.00011669,1.57e-05,0.0,0 STARLINK-3832,1 52646U 22052BA  23099.12080867  .00001570  00000-0  11669-3 0  9998,2 52646  53.2163   2.6509 0001077 110.6153 249.4955 15.08838212 50640,6917.886,95.438,540.496,539.006,0.0
52646.0,STARLINK-3832,PAYLOAD,2023-04-10 02:44:45,15.08840647,9.9e-05,53.2162,358.1914,106.38,253.7301,0.00025102,3.71e-05,0.0,0 STARLINK-3832,1 52646U 22052BA  23100.11441604  .00003710  00000-0  25102-3 0  9995,2 52646  53.2162 358.1914 0000990 106.3800 253.7301 15.08840647 50796,6917.878,95.438,540.428,539.059,0.0
52646.0,STARLINK-3832,PAYLOAD,2023-04-11 02:35:32,15.08848973,0.0001052,53.2167,353.7294,107.0902,253.0206,0.00018755,2.699e-05,0.0,0 STARLINK-3832,1 52646U 22052BA  23101.10801171  .00002699  00000-0  18755-3 0  9995,2 52646  53.2167 353.7294 0001052 107.0902 253.0206 15.08848973 50577,6917.853,95.437,540.446,538.99,0.0
52646.0,STARLINK-3832,PAYLOAD,2023-04-11 21:40:10,15.08831103,0.0001088,53.2161,350.1616,69.9526,290.1583,0.00023397,3.437e-05,0.0,0 STARLINK-3832,1 52646U 22052BA  23101.90290348  .00003437  00000-0  23397-3 0  9990,2 52646  53.2161 350.1616 0001088  69.9526 290.1583 15.08831103 50697,6917.908,95.438,540.525,539.02,0.0
52646.0,STARLINK-3832,PAYLOAD,2023-04-12 02:26:19,15.08839943,0.000114,53.2167,349.2702,92.3764,267.7359,4.6414e-05,4.51e-06,0.0,0 STARLINK-3832,1 52646U 22052BA  23102.10161832  .00000451  00000-0  46414-4 0  9997,2 52646  53.2167 349.2702 0001140  92.3764 267.7359 15.08839943 50726,6917.881,95.438,540.534,538.957,0.0
52646.0,STARLINK-3832,PAYLOAD,2023-04-12 23:06:20,15.0884934,0.0001151,53.2175,345.4043,92.3671,267.7453,-0.00011227,-2.075e-05,0.0,0 STARLINK-3832,1 52646U 22052BA  23102.96273471 -.00002075  00000-0 -11227-3 0  9993,2 52646  53.2175 345.4043 0001151  92.3671 267.7453 15.08849340 50851,6917.852,95.437,540.513,538.921,0.0
52646.0,STARLINK-3832,PAYLOAD,2023-04-14 02:07:53,15.08847356,0.0001089,53.2174,340.3493,102.4192,257.6923,0.00018236,2.616e-05,0.0,0 STARLINK-3832,1 52646U 22052BA  23104.08881455  .00002616  00000-0  18236-3 0  9991,2 52646  53.2174 340.3493 0001089 102.4192 257.6923 15.08847356 51399,6917.858,95.437,540.476,538.97,0.0
52646.0,STARLINK-3832,PAYLOAD,2023-04-14 16:26:22,15.08838535,0.0001436,53.217,337.6729,100.9706,259.1447,0.00013349,1.837e-05,0.0,0 STARLINK-3832,1 52646U 22052BA  23104.68497984  .00001837  00000-0  13349-3 0  9991,2 52646  53.2170 337.6729 0001436 100.9706 259.1447 15.08838535 51483,6917.885,95.438,540.743,538.756,0.0
52646.0,STARLINK-3832,PAYLOAD,2023-04-15 01:58:40,15.08844318,0.0001371,53.2168,335.8884,99.2227,260.892,0.00021934,3.205e-05,0.0,0 STARLINK-3832,1 52646U 22052BA  23105.08241749  .00003205  00000-0  21934-3 0  9992,2 52646  53.2168 335.8884 0001371  99.2227 260.8920 15.08844318 51175,6917.867,95.437,540.681,538.784,0.0
52646.0,STARLINK-3832,PAYLOAD,2023-04-15 21:03:18,15.0884002,0.0001189,53.2166,332.3201,101.94,258.1726,-2.2456e-05,-6.45e-06,0.0,0 STARLINK-3832,1 52646U 22052BA  23105.87729958 -.00000645  00000-0 -22456-4 0  9990,2 52646  53.2166 332.3201 0001189 101.9400 258.1726 15.08840020 51292,6917.88,95.438,540.568,538.923,0.0
52646.0,STARLINK-3832,PAYLOAD,2023-04-16 00:14:04,15.08844022,0.0001012,53.2159,331.7247,103.2652,256.8453,2.4093e-05,9.6e-07,0.0,0 STARLINK-3832,1 52646U 22052BA  23106.00977750  .00000096  00000-0  24093-4 0  9998,2 52646  53.2159 331.7247 0001012 103.2652 256.8453 15.08844022 51317,6917.868,95.437,540.433,539.033,0.0
52646.0,STARLINK-3832,PAYLOAD,2023-04-16 20:54:06,15.08837029,0.0001048,53.2163,327.8598,87.3141,272.7972,8.1092e-05,1.003e-05,0.0,0 STARLINK-3832,1 52646U 22052BA  23106.87090659  .00001003  00000-0  81092-4 0  9998,2 52646  53.2163 327.8598 0001048  87.3141 272.7972 15.08837029 51447,6917.889,95.438,540.479,539.029,0.0
52646.0,STARLINK-3832,PAYLOAD,2023-04-17 14:23:20,15.08838846,0.0001241,53.216,324.5882,90.2873,269.8261,0.00019858,2.874e-05,0.0,0 STARLINK-3832,1 52646U 22052BA  23107.59954861  .00002874  00000-0  19858-3 0  9999,2 52646  53.2160 324.5882 0001241  90.2873 269.8261 15.08838846 51552,6917.884,95.438,540.607,538.89,0.0
52646.0,STARLINK-3832,PAYLOAD,2023-04-17 20:44:53,15.08846917,0.0001001,53.2152,323.3995,72.8766,287.2336,0.00030013,4.493e-05,0.0,0 STARLINK-3832,1 52646U 22052BA  23107.86450548  .00004493  00000-0  30013-3 0  9997,2 52646  53.2152 323.3995 0001001  72.8766 287.2336 15.08846917 51595,6917.859,95.437,540.417,539.032,0.0
52646.0,STARLINK-3832,PAYLOAD,2023-04-17 23:55:39,15.08849636,0.0001031,53.2153,322.8046,75.6898,284.4209,0.00034879,5.269e-05,0.0,0 STARLINK-3832,1 52646U 22052BA  23107.99698438  .00005269  00000-0  34879-3 0  9999,2 52646  53.2153 322.8046 0001031  75.6898 284.4209 15.08849636 51619,6917.851,95.437,540.429,539.003,0.0
52646.0,STARLINK-3832,PAYLOAD,2023-04-18 20:35:40,15.08847342,9.18e-05,53.2154,318.9392,77.3566,282.7529,0.00020348,2.953e-05,0.0,0 STARLINK-3832,1 52646U 22052BA  23108.85810407  .00002953  00000-0  20348-3 0  9990,2 52646  53.2154 318.9392 0000918  77.3566 282.7529 15.08847342 51746,6917.858,95.437,540.358,539.088,0.0
52646.0,STARLINK-3832,PAYLOAD,2023-04-18 23:46:26,15.08849561,9.62e-05,53.2157,318.3439,79.4252,280.6848,0.00023329,3.428e-05,0.0,0 STARLINK-3832,1 52646U 22052BA  23108.99058275  .00003428  00000-0  23329-3 0  9992,2 52646  53.2157 318.3439 0000962  79.4252 280.6848 15.08849561 52139,6917.851,95.437,540.382,539.051,0.0
52646.0,STARLINK-3832,PAYLOAD,2023-04-19 20:26:26,15.08851381,9.88e-05,53.2158,314.4769,86.7899,273.3206,0.00017662,2.525e-05,0.0,0 STARLINK-3832,1 52646U 22052BA  23109.85169940  .00002525  00000-0  17662-3 0  9990,2 52646  53.2158 314.4769 0000988  86.7899 273.3206 15.08851381 51891,6917.846,95.437,540.394,539.027,0.0
52646.0,STARLINK-3832,PAYLOAD,2023-04-19 23:37:13,15.08851039,9.28e-05,53.2162,313.8821,85.4823,274.6275,0.00016889,2.402e-05,0.0,0 STARLINK-3832,1 52646U 22052BA  23109.98417892  .00002402  00000-0  16889-3 0  9990,2 52646  53.2162 313.8821 0000928  85.4823 274.6275 15.08851039 52289,6917.847,95.437,540.354,539.07,0.0
52646.0,STARLINK-3832,PAYLOAD,2023-04-20 13:55:41,15.08838159,0.0001376,53.2159,311.2071,101.4861,258.6285,-4.9393e-06,-3.67e-06,0.0,0 STARLINK-3832,1 52646U 22052BA  23110.58034497 -.00000367  00000-0 -49393-5 0  9992,2 52646  53.2159 311.2071 0001376 101.4861 258.6285 15.08838159 52004,6917.886,95.438,540.703,538.799,0.0
52646.0,STARLINK-3832,PAYLOAD,2023-04-20 20:17:14,15.08838953,0.000128,53.2158,310.0197,93.9782,266.1356,7.3108e-06,-1.72e-06,0.0,0 STARLINK-3832,1 52646U 22052BA  23110.84530497 -.00000172  00000-0  73108-5 0  9996,2 52646  53.2158 310.0197 0001280  93.9782 266.1356 15.08838953 52049,6917.884,95.438,540.634,538.863,0.0
52646.0,STARLINK-3832,PAYLOAD,2023-04-21 13:46:28,15.08839219,9.87e-05,53.2158,306.7483,91.664,268.4465,-1.892e-05,-5.89e-06,0.0,0 STARLINK-3832,1 52646U 22052BA  23111.57394618 -.00000589  00000-0 -18920-4 0  9993,2 52646  53.2158 306.7483 0000987  91.6640 268.4465 15.08839219 52154,6917.883,95.438,540.431,539.065,0.0
52646.0,STARLINK-3832,PAYLOAD,2023-04-21 20:08:01,15.08844355,0.0001006,53.2163,305.559,92.7652,267.3455,8.1697e-05,1.013e-05,0.0,0 STARLINK-3832,1 52646U 22052BA  23111.83890396  .00001013  00000-0  81697-4 0  9998,2 52646  53.2163 305.5590 0001006  92.7652 267.3455 15.08844355 52192,6917.867,95.437,540.428,539.036,0.0
52646.0,STARLINK-3832,PAYLOAD,2023-04-22 12:01:52,15.08839363,5.08e-05,53.2159,302.5851,116.0498,244.0546,0.00016367,2.318e-05,0.0,0 STARLINK-3832,1 52646U 22052BA  23112.50130487  .00002318  00000-0  16367-3 0  9991,2 52646  53.2159 302.5851 0000508 116.0498 244.0546 15.08839363 52666,6917.882,95.438,540.099,539.396,0.0
52646.0,STARLINK-3832,PAYLOAD,2023-04-22 13:37:16,15.08836926,0.0001073,53.2162,302.2868,96.7258,263.3856,0.00014252,1.981e-05,0.0,0 STARLINK-3832,1 52646U 22052BA  23112.56754841  .00001981  00000-0  14252-3 0  9999,2 52646  53.2162 302.2868 0001073  96.7258 263.3856 15.08836926 52302,6917.89,95.438,540.497,539.012,0.0
52646.0,STARLINK-3832,PAYLOAD,2023-04-23 11:52:40,15.08832566,0.0001009,53.2165,298.1242,96.2741,263.8366,-3.8365e-06,-3.49e-06,0.0,0 STARLINK-3832,1 52646U 22052BA  23113.49491332 -.00000349  00000-0 -38365-5 0  9997,2 52646  53.2165 298.1242 0001009  96.2741 263.8366 15.08832566 52447,6917.903,95.438,540.466,539.07,0.0
52646.0,STARLINK-3832,PAYLOAD,2023-04-24 11:43:26,15.08857817,0.0001285,53.2171,293.6617,94.6147,265.4992,0.00022342,3.271e-05,0.0,0 STARLINK-3832,1 52646U 22052BA  23114.48849746  .00003271  00000-0  22342-3 0  9994,2 52646  53.2171 293.6617 0001285  94.6147 265.4992 15.08857817 52964,6917.826,95.436,540.58,538.802,0.0
52646.0,STARLINK-3832,PAYLOAD,2023-04-25 11:34:16,15.08794398,0.0001217,53.2164,289.2027,98.4852,261.6278,-0.00061109,-9.988e-05,0.0,0 STARLINK-3832,1 52646U 22052BA  23115.48213091 -.00009988  00000-0 -61109-3 0  9990,2 52646  53.2164 289.2027 0001217  98.4852 261.6278 15.08794398 53119,6918.02,95.44,540.727,539.043,0.0
